[{"OBJECT_NAME":"YAOGAN-30 06B","OBJECT_ID":"2019-045B","EPOCH":"2026-03-09T20:57:59.211936","MEAN_MOTION":15.02091105,"ECCENTRICITY":0.00094792,"INCLINATION":34.9914,"RA_OF_ASC_NODE":214.7206,"ARG_OF_PERICENTER":283.6936,"MEAN_ANOMALY":76.2717,"EPHEMERIS_TYPE":0,"CLASSIFICATION_TYPE":"U","NORAD_CAT_ID":44450,"ELEMENT_SET_NO":999,"REV_AT_EPOCH":36171,"BSTAR":0.00031633807,"MEAN_MOTION_DOT":4.217e-5,"MEAN_MOTION_DDOT":0},{"OBJECT_NAME":"STARLINK-4375","OBJECT_ID":"2022-084D","EPOCH":"2026-03-09T17:37:42.898656","MEAN_MOTION":15.05650501,"ECCENTRICITY":6.03e-6,"INCLINATION":97.6036,"RA_OF_ASC_NODE":131.2511,"ARG_OF_PERICENTER":146.3134,"MEAN_ANOMALY":213.8096,"EPHEMERIS_TYPE":0,"CLASSIFICATION_TYPE":"U","NORAD_CAT_ID":53192,"ELEMENT_SET_NO":999,"REV_AT_EPOCH":20005,"BSTAR":2.0204406e-5,"MEAN_MOTION_DOT":2.31e-6,"MEAN_MOTION_DDOT":0}]
